[
    {"nom": "Paris", "code_postal": "75000"},
    {"nom": "Marseille", "code_postal": "13000"},
    {"nom": "Lyon", "code_postal": "69000"},
    {"nom": "Toulouse", "code_postal": "31000"},
    {"nom": "Nice", "code_postal": "06000"},
    {"nom": "Nantes", "code_postal": "44000"},
    {"nom": "Strasbourg", "code_postal": "67000"},
    {"nom": "Montpellier", "code_postal": "34000"},
    {"nom": "Bordeaux", "code_postal": "33000"},
    {"nom": "Lille", "code_postal": "59000"},
    {"nom": "Rennes", "code_postal": "35000"},
    {"nom": "Reims", "code_postal": "51100"},
    {"nom": "Le Havre", "code_postal": "76600"},
    {"nom": "Saint-Étienne", "code_postal": "42000"},
    {"nom": "Toulon", "code_postal": "83000"},
    {"nom": "Grenoble", "code_postal": "38000"},
    {"nom": "Dijon", "code_postal": "21000"},
    {"nom": "Nîmes", "code_postal": "30000"},
    {"nom": "Aix-en-Provence", "code_postal": "13090"},
    {"nom": "Angers", "code_postal": "49000"},
    {"nom": "Saint-Denis", "code_postal": "93216"},
    {"nom": "Villeurbanne", "code_postal": "69100"},
    {"nom": "Clermont-Ferrand", "code_postal": "63000"},
    {"nom": "La Rochelle", "code_postal": "17000"},
    {"nom": "Saint-Nazaire", "code_postal": "44600"},
    {"nom": "Cannes", "code_postal": "06150"},
    {"nom": "Amiens", "code_postal": "80000"},
    {"nom": "Brest", "code_postal": "29200"},
    {"nom": "Tours", "code_postal": "37000"},
    {"nom": "Perpignan", "code_postal": "66000"},
    {"nom": "Metz", "code_postal": "57000"},
    {"nom": "Besançon", "code_postal": "25000"},
    {"nom": "Orléans", "code_postal": "45000"},
    {"nom": "Rouen", "code_postal": "76000"},
    {"nom": "Argenteuil", "code_postal": "95100"},
    {"nom": "Mulhouse", "code_postal": "68100"},
    {"nom": "Caen", "code_postal": "14000"},
    {"nom": "Saint-Paul", "code_postal": "97460"},
    {"nom": "Nancy", "code_postal": "54000"},
    {"nom": "Rueil-Malmaison", "code_postal": "92500"},
    {"nom": "Antibes", "code_postal": "06600"},
    {"nom": "La Seyne-sur-Mer", "code_postal": "83500"},
    {"nom": "Champigny-sur-Marne", "code_postal": "94500"},
    {"nom": "Colombes", "code_postal": "92700"},
    {"nom": "Saint-Malo", "code_postal": "35400"},
    {"nom": "Neuilly-sur-Seine", "code_postal": "92200"},
    {"nom": "Calais", "code_postal": "62100"},
    {"nom": "Limoges", "code_postal": "87000"},
    {"nom": "Clamart", "code_postal": "92140"},
    {"nom": "Aubervilliers", "code_postal": "93300"},
    {"nom": "La Teste-de-Buch", "code_postal": "33260"},
    {"nom": "Cesson-Sévigné", "code_postal": "35510"},
    {"nom": "Sarcelles", "code_postal": "95200"},
    {"nom": "Vénissieux", "code_postal": "69200"},
    {"nom": "Saint-Quentin", "code_postal": "02100"},
    {"nom": "Troyes", "code_postal": "10000"},
    {"nom": "Pau", "code_postal": "64000"},
    {"nom": "Bourges", "code_postal": "18000"},
    {"nom": "Saint-Pierre", "code_postal": "97410"},
    {"nom": "Mérignac", "code_postal": "33700"},
    {"nom": "Pessac", "code_postal": "33600"},
    {"nom": "Cognac", "code_postal": "16100"},
    {"nom": "Lorient", "code_postal": "56100"},
    {"nom": "Cannes", "code_postal": "06400"},
    {"nom": "Colmar", "code_postal": "68000"},
    {"nom": "Antony", "code_postal": "92160"},
    {"nom": "Avignon", "code_postal": "84000"},
    {"nom": "Montauban", "code_postal": "82000"},
    {"nom": "Saint-Dizier", "code_postal": "52100"},
    {"nom": "Carcassonne", "code_postal": "11000"},
    {"nom": "Sète", "code_postal": "34200"},
    {"nom": "Alès", "code_postal": "30100"},
    {"nom": "Évreux", "code_postal": "27000"},
    {"nom": "Chalon-sur-Saône", "code_postal": "71100"},
    {"nom": "Le Creusot", "code_postal": "71200"},
    {"nom": "Arras", "code_postal": "62000"},
    {"nom": "Mantes-la-Jolie", "code_postal": "78200"},
    {"nom": "Bourges", "code_postal": "18000"},
    {"nom": "Garges-lès-Gonesse", "code_postal": "95140"},
    {"nom": "Saint-Laurent-du-Maroni", "code_postal": "97320"},
    {"nom": "Brive-la-Gaillarde", "code_postal": "19100"},
    {"nom": "L'Haÿ-les-Roses", "code_postal": "94240"},
    {"nom": "Saint-Étienne-du-Rouvray", "code_postal": "76800"},
    {"nom": "Bagneux", "code_postal": "92220"},
    {"nom": "Gennevilliers", "code_postal": "92230"},
    {"nom": "Sainte-Marie", "code_postal": "97438"},
    {"nom": "Cesson", "code_postal": "77240"},
    {"nom": "Nanterre", "code_postal": "92000"},
    {"nom": "Aubagne", "code_postal": "13400"},
    {"nom": "Agen", "code_postal": "47000"},
    {"nom": "Dunkerque", "code_postal": "59140"},
    {"nom": "Cesson-Sévigné", "code_postal": "35510"},
    {"nom": "Sarcelles", "code_postal": "95200"},
    {"nom": "Vénissieux", "code_postal": "69200"},
    {"nom": "Saint-Quentin", "code_postal": "02100"},
    {"nom": "Troyes", "code_postal": "10000"},
    {"nom": "Pau", "code_postal": "64000"},
    {"nom": "Bourges", "code_postal": "18000"},
    {"nom": "Saint-Pierre", "code_postal": "97410"},
    {"nom": "Mérignac", "code_postal": "33700"},
    {"nom": "Pessac", "code_postal": "33600"},
    {"nom": "Cognac", "code_postal": "16100"},
    {"nom": "Lorient", "code_postal": "56100"},
    {"nom": "Colmar", "code_postal": "68000"},
    {"nom": "Antony", "code_postal": "92160"},
    {"nom": "Avignon", "code_postal": "84000"},
    {"nom": "Montauban", "code_postal": "82000"},
    {"nom": "Saint-Dizier", "code_postal": "52100"},
    {"nom": "Carcassonne", "code_postal": "11000"},
    {"nom": "Sète", "code_postal": "34200"},
    {"nom": "Alès", "code_postal": "30100"},
    {"nom": "Évreux", "code_postal": "27000"},
    {"nom": "Chalon-sur-Saône", "code_postal": "71100"},
    {"nom": "Le Creusot", "code_postal": "71200"},
    {"nom": "Arras", "code_postal": "62000"},
    {"nom": "Mantes-la-Jolie", "code_postal": "78200"},
    {"nom": "Bourges", "code_postal": "18000"},
    {"nom": "Garges-lès-Gonesse", "code_postal": "95140"},
    {"nom": "Saint-Laurent-du-Maroni", "code_postal": "97320"},
    {"nom": "Brive-la-Gaillarde", "code_postal": "19100"},
    {"nom": "L'Haÿ-les-Roses", "code_postal": "94240"},
    {"nom": "Saint-Étienne-du-Rouvray", "code_postal": "76800"},
    {"nom": "Bagneux", "code_postal": "92220"},
    {"nom": "Gennevilliers", "code_postal": "92230"},
    {"nom": "Sainte-Marie", "code_postal": "97438"},
    {"nom": "Cesson", "code_postal": "77240"},
    {"nom": "Nanterre", "code_postal": "92000"},
    {"nom": "Aubagne", "code_postal": "13400"},
    {"nom": "Agen", "code_postal": "47000"},
    {"nom": "Dunkerque", "code_postal": "59140"},
    {"nom": "Cesson-Sévigné", "code_postal": "35510"}
]
